[{"OBJECT_NAME":"STARLINK-2547","OBJECT_ID":"2021-036L","EPOCH":"2026-01-02T09:34:40.454976","MEAN_MOTION":15.06391076,"ECCENTRICITY":0.00010703,"INCLINATION":53.055,"RA_OF_ASC_NODE":19.4779,"ARG_OF_PERICENTER":67.6915,"MEAN_ANOMALY":292.4188,"EPHEMERIS_TYPE":0,"CLASSIFICATION_TYPE":"U","NORAD_CAT_ID":48286,"ELEMENT_SET_NO":999,"REV_AT_EPOCH":25831,"BSTAR":-8.65166e-5,"MEAN_MOTION_DOT":-1.569e-5,"MEAN_MOTION_DDOT":0},{"OBJECT_NAME":"STARLINK-2566","OBJECT_ID":"2021-036M","EPOCH":"2026-01-02T10:27:42.782976","MEAN_MOTION":15.06395207,"ECCENTRICITY":0.00014848,"INCLINATION":53.0547,"RA_OF_ASC_NODE":19.0431,"ARG_OF_PERICENTER":94.203,"MEAN_ANOMALY":265.9128,"EPHEMERIS_TYPE":0,"CLASSIFICATION_TYPE":"U","NORAD_CAT_ID":48287,"ELEMENT_SET_NO":999,"REV_AT_EPOCH":25832,"BSTAR":7.7207353e-5,"MEAN_MOTION_DOT":8.69e-6,"MEAN_MOTION_DDOT":0},{"OBJECT_NAME":"STARLINK-2545","OBJECT_ID":"2021-036P","EPOCH":"2026-01-02T08:41:33.922752","MEAN_MOTION":15.06381902,"ECCENTRICITY":0.00013473,"INCLINATION":53.0565,"RA_OF_ASC_NODE":19.3764,"ARG_OF_PERICENTER":81.7015,"MEAN_ANOMALY":278.4126,"EPHEMERIS_TYPE":0,"CLASSIFICATION_TYPE":"U","NORAD_CAT_ID":48289,"ELEMENT_SET_NO":999,"REV_AT_EPOCH":25831,"BSTAR":3.766501e-6,"MEAN_MOTION_DOT":-2.25e-6,"MEAN_MOTION_DDOT":0},{"OBJECT_NAME":"STARLINK-2540","OBJECT_ID":"2021-036Q","EPOCH":"2026-01-02T20:00:01.999872","MEAN_MOTION":15.98486804,"ECCENTRICITY":0.0009137,"INCLINATION":53.0449,"RA_OF_ASC_NODE":350.0398,"ARG_OF_PERICENTER":82.5687,"MEAN_ANOMALY":2.2512,"EPHEMERIS_TYPE":0,"CLASSIFICATION_TYPE":"U","NORAD_CAT_ID":48290,"ELEMENT_SET_NO":999,"REV_AT_EPOCH":604,"BSTAR":0.0019265,"MEAN_MOTION_DOT":0.00925755,"MEAN_MOTION_DDOT":0.0004119},{"OBJECT_NAME":"STARLINK-2555","OBJECT_ID":"2021-036R","EPOCH":"2026-01-02T10:06:28.785600","MEAN_MOTION":15.06389232,"ECCENTRICITY":0.00013407,"INCLINATION":53.0532,"RA_OF_ASC_NODE":19.1093,"ARG_OF_PERICENTER":76.9367,"MEAN_ANOMALY":283.1771,"EPHEMERIS_TYPE":0,"CLASSIFICATION_TYPE":"U","NORAD_CAT_ID":48291,"ELEMENT_SET_NO":999,"REV_AT_EPOCH":25832,"BSTAR":4.7346508e-5,"MEAN_MOTION_DOT":4.24e-6,"MEAN_MOTION_DDOT":0},{"OBJECT_NAME":"STARLINK-2542","OBJECT_ID":"2021-036S","EPOCH":"2026-01-02T08:46:53.683968","MEAN_MOTION":15.06394598,"ECCENTRICITY":0.0001272,"INCLINATION":53.0551,"RA_OF_ASC_NODE":19.5218,"ARG_OF_PERICENTER":85.7877,"MEAN_ANOMALY":274.3257,"EPHEMERIS_TYPE":0,"CLASSIFICATION_TYPE":"U","NORAD_CAT_ID":48292,"ELEMENT_SET_NO":999,"REV_AT_EPOCH":25831,"BSTAR":0.00010584931,"MEAN_MOTION_DOT":1.295e-5,"MEAN_MOTION_DDOT":0},{"OBJECT_NAME":"STARLINK-2550","OBJECT_ID":"2021-036T","EPOCH":"2026-01-02T11:31:24.496896","MEAN_MOTION":15.06388437,"ECCENTRICITY":0.00013079,"INCLINATION":53.0546,"RA_OF_ASC_NODE":18.844,"ARG_OF_PERICENTER":91.5769,"MEAN_ANOMALY":268.537,"EPHEMERIS_TYPE":0,"CLASSIFICATION_TYPE":"U","NORAD_CAT_ID":48293,"ELEMENT_SET_NO":999,"REV_AT_EPOCH":25833,"BSTAR":6.3532902e-5,"MEAN_MOTION_DOT":6.65e-6,"MEAN_MOTION_DDOT":0},{"OBJECT_NAME":"STARLINK-2533","OBJECT_ID":"2021-036U","EPOCH":"2026-01-02T08:15:00.644544","MEAN_MOTION":15.06401297,"ECCENTRICITY":0.00017662,"INCLINATION":53.0548,"RA_OF_ASC_NODE":19.4574,"ARG_OF_PERICENTER":100.0065,"MEAN_ANOMALY":260.1123,"EPHEMERIS_TYPE":0,"CLASSIFICATION_TYPE":"U","NORAD_CAT_ID":48294,"ELEMENT_SET_NO":999,"REV_AT_EPOCH":25831,"BSTAR":-4.0626495e-5,"MEAN_MOTION_DOT":-8.87e-6,"MEAN_MOTION_DDOT":0},{"OBJECT_NAME":"STARLINK-2535","OBJECT_ID":"2021-036V","EPOCH":"2026-01-02T08:09:41.979744","MEAN_MOTION":15.06398465,"ECCENTRICITY":0.00017294,"INCLINATION":53.056,"RA_OF_ASC_NODE":19.471,"ARG_OF_PERICENTER":87.6445,"MEAN_ANOMALY":272.4742,"EPHEMERIS_TYPE":0,"CLASSIFICATION_TYPE":"U","NORAD_CAT_ID":48295,"ELEMENT_SET_NO":999,"REV_AT_EPOCH":25831,"BSTAR":5.7816872e-5,"MEAN_MOTION_DOT":5.8e-6,"MEAN_MOTION_DDOT":0},{"OBJECT_NAME":"STARLINK-2559","OBJECT_ID":"2021-036Y","EPOCH":"2026-01-02T11:04:51.625632","MEAN_MOTION":15.06396606,"ECCENTRICITY":0.00013872,"INCLINATION":53.0539,"RA_OF_ASC_NODE":18.9285,"ARG_OF_PERICENTER":93.7352,"MEAN_ANOMALY":266.3796,"EPHEMERIS_TYPE":0,"CLASSIFICATION_TYPE":"U","NORAD_CAT_ID":48298,"ELEMENT_SET_NO":999,"REV_AT_EPOCH":25833,"BSTAR":7.2809602e-5,"MEAN_MOTION_DOT":8.03e-6,"MEAN_MOTION_DDOT":0},{"OBJECT_NAME":"STARLINK-2557","OBJECT_ID":"2021-036Z","EPOCH":"2026-01-02T10:59:33.458496","MEAN_MOTION":15.06389089,"ECCENTRICITY":0.0001477,"INCLINATION":53.0567,"RA_OF_ASC_NODE":18.9423,"ARG_OF_PERICENTER":87.4624,"MEAN_ANOMALY":272.6534,"EPHEMERIS_TYPE":0,"CLASSIFICATION_TYPE":"U","NORAD_CAT_ID":48299,"ELEMENT_SET_NO":999,"REV_AT_EPOCH":25833,"BSTAR":4.3884281e-5,"MEAN_MOTION_DOT":3.72e-6,"MEAN_MOTION_DDOT":0},{"OBJECT_NAME":"STARLINK-2538","OBJECT_ID":"2021-036AA","EPOCH":"2026-01-02T18:45:18.294336","MEAN_MOTION":15.06398351,"ECCENTRICITY":0.0001418,"INCLINATION":53.0545,"RA_OF_ASC_NODE":27.4945,"ARG_OF_PERICENTER":91.283,"MEAN_ANOMALY":268.8321,"EPHEMERIS_TYPE":0,"CLASSIFICATION_TYPE":"U","NORAD_CAT_ID":48300,"ELEMENT_SET_NO":999,"REV_AT_EPOCH":25824,"BSTAR":0.00012807,"MEAN_MOTION_DOT":1.627e-5,"MEAN_MOTION_DDOT":0},{"OBJECT_NAME":"STARLINK-2537","OBJECT_ID":"2021-036AB","EPOCH":"2026-01-02T18:39:59.945760","MEAN_MOTION":15.06387429,"ECCENTRICITY":0.0001273,"INCLINATION":53.0544,"RA_OF_ASC_NODE":27.5073,"ARG_OF_PERICENTER":82.5103,"MEAN_ANOMALY":277.603,"EPHEMERIS_TYPE":0,"CLASSIFICATION_TYPE":"U","NORAD_CAT_ID":48301,"ELEMENT_SET_NO":999,"REV_AT_EPOCH":25823,"BSTAR":0.00073969,"MEAN_MOTION_DOT":0.0001075,"MEAN_MOTION_DDOT":0},{"OBJECT_NAME":"STARLINK-2530","OBJECT_ID":"2021-036AD","EPOCH":"2026-01-02T11:46:05.849472","MEAN_MOTION":15.06388644,"ECCENTRICITY":0.00015355,"INCLINATION":53.0569,"RA_OF_ASC_NODE":29.3388,"ARG_OF_PERICENTER":93.9033,"MEAN_ANOMALY":266.2131,"EPHEMERIS_TYPE":0,"CLASSIFICATION_TYPE":"U","NORAD_CAT_ID":48303,"ELEMENT_SET_NO":999,"REV_AT_EPOCH":25818,"BSTAR":0.00011257872,"MEAN_MOTION_DOT":1.395e-5,"MEAN_MOTION_DDOT":0},{"OBJECT_NAME":"STARLINK-2524","OBJECT_ID":"2021-036AE","EPOCH":"2026-01-02T08:50:50.255808","MEAN_MOTION":15.06398819,"ECCENTRICITY":0.00013535,"INCLINATION":53.0554,"RA_OF_ASC_NODE":29.3449,"ARG_OF_PERICENTER":93.9258,"MEAN_ANOMALY":266.1886,"EPHEMERIS_TYPE":0,"CLASSIFICATION_TYPE":"U","NORAD_CAT_ID":48304,"ELEMENT_SET_NO":999,"REV_AT_EPOCH":25817,"BSTAR":0.00015161312,"MEAN_MOTION_DOT":1.977e-5,"MEAN_MOTION_DDOT":0},{"OBJECT_NAME":"STARLINK-2519","OBJECT_ID":"2021-036AF","EPOCH":"2026-01-02T08:29:42.869760","MEAN_MOTION":15.06395009,"ECCENTRICITY":0.00016041,"INCLINATION":53.0568,"RA_OF_ASC_NODE":29.9905,"ARG_OF_PERICENTER":91.5089,"MEAN_ANOMALY":268.6084,"EPHEMERIS_TYPE":0,"CLASSIFICATION_TYPE":"U","NORAD_CAT_ID":48305,"ELEMENT_SET_NO":999,"REV_AT_EPOCH":25816,"BSTAR":0.000144675,"MEAN_MOTION_DOT":1.874e-5,"MEAN_MOTION_DDOT":0}]
