STARLINK-2547           
1 48286U 21036L   26002.39907934 -.00001569  00000+0 -86517-4 0  9997
2 48286  53.0550  19.4779 0001070  67.6915 292.4188 15.06391076258318
STARLINK-2566           
1 48287U 21036M   26002.43591184  .00000869  00000+0  77207-4 0  9995
2 48287  53.0547  19.0431 0001484  94.2030 265.9128 15.06395207258329
STARLINK-2545           
1 48289U 21036P   26002.36219818 -.00000225  00000+0  37665-5 0  9992
2 48289  53.0565  19.3764 0001347  81.7015 278.4126 15.06381902258318
STARLINK-2540           
1 48290U 21036Q   26002.83335648  .00925755  41190-3  19265-2 0  9991
2 48290  53.0449 350.0398 0009137  82.5687   2.2512 15.98486804  6049
STARLINK-2555           
1 48291U 21036R   26002.42116650  .00000424  00000+0  47347-4 0  9999
2 48291  53.0532  19.1093 0001340  76.9367 283.1771 15.06389232258321
STARLINK-2542           
1 48292U 21036S   26002.36589912  .00001295  00000+0  10585-3 0  9998
2 48292  53.0551  19.5218 0001272  85.7877 274.3257 15.06394598258315
STARLINK-2550           
1 48293U 21036T   26002.48014464  .00000665  00000+0  63533-4 0  9999
2 48293  53.0546  18.8440 0001307  91.5769 268.5370 15.06388437258331
STARLINK-2533           
1 48294U 21036U   26002.34375746 -.00000887  00000+0 -40626-4 0  9994
2 48294  53.0548  19.4574 0001766 100.0065 260.1123 15.06401297258315
STARLINK-2535           
1 48295U 21036V   26002.34006921  .00000580  00000+0  57817-4 0  9999
2 48295  53.0560  19.4710 0001729  87.6445 272.4742 15.06398465258318
STARLINK-2559           
1 48298U 21036Y   26002.46170863  .00000803  00000+0  72810-4 0  9990
2 48298  53.0539  18.9285 0001387  93.7352 266.3796 15.06396606258331
STARLINK-2557           
1 48299U 21036Z   26002.45802614  .00000372  00000+0  43884-4 0  9996
2 48299  53.0567  18.9423 0001477  87.4624 272.6534 15.06389089258336
STARLINK-2538           
1 48300U 21036AA  26002.78146174  .00001627  00000+0  12807-3 0  9991
2 48300  53.0545  27.4945 0001418  91.2830 268.8321 15.06398351258249
STARLINK-2537           
1 48301U 21036AB  26002.77777715  .00010750  00000+0  73969-3 0  9995
2 48301  53.0544  27.5073 0001273  82.5103 277.6030 15.06387429258235
STARLINK-2530           
1 48303U 21036AD  26002.49034548  .00001395  00000+0  11258-3 0  9994
2 48303  53.0569  29.3388 0001535  93.9033 266.2131 15.06388644258182
STARLINK-2524           
1 48304U 21036AE  26002.36863722  .00001977  00000+0  15161-3 0  9998
2 48304  53.0554  29.3449 0001353  93.9258 266.1886 15.06398819258172
STARLINK-2519           
1 48305U 21036AF  26002.35396840  .00001874  00000+0  14468-3 0  9995
2 48305  53.0568  29.9905 0001604  91.5089 268.6084 15.06395009258160
